OBJECT_NAME,OBJECT_ID,EPOCH,MEAN_MOTION,ECCENTRICITY,INCLINATION,RA_OF_ASC_NODE,ARG_OF_PERICENTER,MEAN_ANOMALY,EPHEMERIS_TYPE,CLASSIFICATION_TYPE,NORAD_CAT_ID,ELEMENT_SET_NO,REV_AT_EPOCH,BSTAR,MEAN_MOTION_DOT,MEAN_MOTION_DDOT
STARLINK-1277,2020-019K,2026-06-10T00:11:41.224992,15.64662979,.0004416,53.0418,65.0213,64.0072,296.1397,0,U,45369,999,34431,.48402831E-3,.47528E-3,0
STARLINK-1281,2020-019L,2026-06-10T02:58:02.489088,15.35123191,.00050105,53.1558,94.8635,76.8521,283.3040,0,U,45370,999,34392,.79301387E-3,.27145E-3,0
STARLINK-1300,2020-019Q,2026-06-10T03:14:36.146112,15.35612139,.0004419,53.1580,94.7093,94.4241,265.7267,0,U,45374,999,34392,.13731976E-2,.48163E-3,0
STARLINK-1302,2020-019R,2026-06-09T23:59:44.099808,15.67557918,.00049661,53.0452,61.0979,76.4048,283.7521,0,U,45375,999,34436,.47363438E-3,.52317E-3,0
STARLINK-1304,2020-019S,2026-06-10T00:10:18.338016,15.63032643,.00049743,53.0420,62.4405,87.5163,272.6420,0,U,45376,999,34434,.60617434E-3,.55989E-3,0
STARLINK-1305,2020-019T,2026-06-09T22:46:41.507328,15.71793122,.00020946,53.0378,41.1312,220.5617,139.5244,0,U,45377,999,34464,.51313288E-3,.6779E-3,0
STARLINK-1319,2020-019V,2026-06-10T05:25:44.395392,15.77790573,.00026746,53.0380,31.3565,100.9180,259.2141,0,U,45379,999,34480,.49139161E-3,.84509E-3,0
STARLINK-1266,2020-019Z,2026-06-09T22:57:14.738112,15.66104553,.00012663,53.0451,47.6071,179.6852,180.4164,0,U,45383,999,34454,.87094517E-3,.91538E-3,0
STARLINK-1267,2020-019AA,2026-06-09T22:11:46.699584,15.65536651,.00064137,53.0439,38.9931,119.3465,240.8191,0,U,45384,999,34466,.47316237E-3,.48135E-3,0
STARLINK-1272,2020-019AC,2026-06-09T21:01:43.100256,15.70023330,.0006734,53.0408,17.9395,101.8122,258.3650,0,U,45386,999,34495,.5072E-3,.622E-3,0
STARLINK-1274,2020-019AD,2026-06-09T20:23:23.699904,15.62237633,.00069811,53.0200,17.4003,150.4986,209.6422,0,U,45387,999,34495,.10335903E-2,.93389E-3,0
STARLINK-1280,2020-019AE,2026-06-09T21:45:20.621088,15.82510024,.00005412,53.0365,25.1674,91.6788,268.4295,0,U,45388,999,34484,.55738062E-3,.119657E-2,0
STARLINK-1283,2020-019AF,2026-06-09T21:23:11.529024,15.71818660,.0002702,53.0400,16.9231,149.6591,210.4583,0,U,45389,999,34497,.51323125E-3,.67881E-3,0
STARLINK-1284,2020-019AG,2026-06-09T23:23:34.080000,15.70190890,.00039434,53.0408,40.4211,51.3295,308.8074,0,U,45390,999,34464,.47850674E-3,.58993E-3,0
STARLINK-1297,2020-019AM,2026-06-10T05:54:58.140864,15.68547832,.00057908,53.0421,38.1397,65.1653,294.9965,0,U,45395,999,34388,.46677198E-3,.53716E-3,0
STARLINK-1307,2020-019AP,2026-06-09T22:23:38.616576,15.56800937,.00020013,53.0528,45.7669,110.9472,249.1753,0,U,45397,999,34439,.46455708E-3,.33542E-3,0
STARLINK-1255,2020-019AR,2026-06-09T21:31:06.989088,15.65995953,.00046025,53.0357,13.6708,119.0060,241.1416,0,U,45399,999,34482,.45642166E-3,.47255E-3,0
STARLINK-1260,2020-019AW,2026-06-10T07:00:59.705280,15.37519567,.00085438,53.1549,56.7387,116.2000,243.9883,0,U,45404,999,34418,-.10658611E-1,-.379912E-2,0
STARLINK-1263,2020-019AX,2026-06-10T00:09:26.415936,15.35229538,.00041572,53.1581,59.3800,117.7316,242.4109,0,U,45405,999,34412,.14316372E-2,.49624E-3,0
STARLINK-1265,2020-019AY,2026-06-10T00:34:42.896640,15.38454636,.00043289,53.1560,57.9780,86.3185,273.8315,0,U,45406,999,34414,.131807E-2,.50702E-3,0
STARLINK-1278,2020-019BA,2026-06-09T22:52:29.915328,15.69433953,.00058551,53.0400,38.5059,89.3425,270.8262,0,U,45408,999,34439,.49344363E-3,.58986E-3,0
STARLINK-1296,2020-019BE,2026-06-09T23:57:53.839584,15.38643500,.00049579,53.1557,57.7866,84.8139,275.3432,0,U,45412,999,34414,.13298212E-2,.51485E-3,0
STARLINK-1309,2020-019BG,2026-06-09T21:51:41.626080,15.68447533,.00056539,53.0614,32.6750,60.3846,299.7733,0,U,45414,999,34445,.45912666E-3,.52598E-3,0
STARLINK-1316,2020-019BH,2026-06-10T00:46:34.830048,15.38985275,.00056584,53.1560,57.5568,89.0301,271.1352,0,U,45415,999,34417,.12640263E-2,.49464E-3,0
STARLINK-1286,2020-019BK,2026-06-09T23:23:10.602528,15.64345423,.00015076,53.0463,43.9081,208.4009,151.6923,0,U,45417,999,34459,.5835725E-3,.56738E-3,0
STARLINK-1308,2020-019BM,2026-06-09T23:58:09.172128,15.66026225,.00074172,53.0466,63.1674,55.1153,305.0558,0,U,45419,999,34407,.47088936E-3,.48879E-3,0
STARLINK-1329,2020-025A,2026-06-10T05:36:30.050496,15.73586300,.00025258,53.0433,345.5991,159.3789,200.7331,0,U,45531,999,33996,.50426818E-3,.71967E-3,0
STARLINK-1338,2020-025B,2026-06-09T19:42:00.740160,15.68075433,.00027282,53.0448,354.3732,107.6759,252.4554,0,U,45532,999,33980,.47518091E-3,.53605E-3,0
STARLINK-1350,2020-025E,2026-06-09T17:19:29.501472,15.38265227,.00013539,53.0733,320.1840,87.9562,272.1596,0,U,45535,999,34031,.23314361E-3,.8538E-4,0
STARLINK-1362,2020-025H,2026-06-09T22:42:47.061792,15.37499205,.00027048,53.1576,30.3514,159.3477,200.7637,0,U,45538,999,33933,-.35821994E-2,-.13181E-2,0
STARLINK-1368,2020-025K,2026-06-09T23:01:29.516160,15.37631013,.00038274,53.1583,30.6539,139.8899,220.2389,0,U,45540,999,33932,.12383363E-2,.46316E-3,0
STARLINK-1371,2020-025M,2026-06-09T20:43:16.965120,15.62603229,.0004195,53.0454,3.9294,153.6567,206.4660,0,U,45542,999,33967,.95409E-3,.87278E-3,0
STARLINK-1372,2020-025N,2026-06-09T22:00:57.382848,15.38117440,.00028153,53.1571,30.3409,124.7352,235.3918,0,U,45543,999,33842,.10969655E-2,.41611E-3,0
STARLINK-1373,2020-025P,2026-06-09T20:05:18.993696,15.70013743,.00024853,53.0457,359.5080,84.2163,275.9136,0,U,45544,999,33973,.49117845E-3,.60119E-3,0
STARLINK-1327,2020-025AA,2026-06-10T04:50:01.741920,15.67449066,.00037471,53.0423,334.9126,79.5735,280.5702,0,U,45555,999,34010,.46315523E-3,.50897E-3,0
STARLINK-1356,2020-025AK,2026-06-10T05:25:43.997088,15.65375197,.00004075,53.0434,347.9817,334.0102,26.0892,0,U,45564,999,33992,.44235889E-3,.44616E-3,0
STARLINK-1357,2020-025AL,2026-06-10T03:00:15.064704,15.69747455,.00045812,53.0454,305.1371,123.0504,237.0953,0,U,45565,999,34052,.52411602E-3,.63528E-3,0
STARLINK-1361,2020-025AN,2026-06-10T05:24:39.472704,15.63097385,.00021147,53.0434,346.3232,282.6443,77.4334,0,U,45567,999,33995,.1097946E-2,.102655E-2,0
STARLINK-1376,2020-025AR,2026-06-10T06:48:19.235808,15.38496581,.00036593,53.1591,5.0180,119.7437,240.3932,0,U,45570,999,33971,.12709588E-2,.48928E-3,0
STARLINK-1320,2020-025AT,2026-06-10T08:00:01.999872,15.87559689,.00088131,53.0408,242.8077,344.1674,43.4935,0,U,45572,999,602,.4877148E-3,.134089E-2,0
STARLINK-1321,2020-025AU,2026-06-10T04:03:55.587168,15.64123832,.00012937,53.0429,330.4778,188.5608,171.5384,0,U,45573,999,33986,.10905163E-2,.106215E-2,0
STARLINK-1331,2020-025AZ,2026-06-10T01:34:18.194304,15.63797149,.00018322,53.0462,337.8942,117.9996,242.1203,0,U,45578,999,34006,.10542201E-2,.101282E-2,0
STARLINK-1333,2020-025BB,2026-06-10T06:29:55.091328,15.35483048,.00019095,53.1568,6.6374,152.1853,207.9252,0,U,45580,999,33969,.13672419E-2,.47742E-3,0
STARLINK-1335,2020-025BC,2026-06-09T20:13:42.416256,15.37181221,.00041763,53.1562,5.3445,138.7592,221.3728,0,U,45581,999,33966,.14308777E-2,.52847E-3,0
STARLINK-1337,2020-025BD,2026-06-10T07:00:39.997440,15.74855902,.00036936,53.0451,325.9464,103.3921,256.7510,0,U,45582,999,34023,.45637179E-3,.68751E-3,0
STARLINK-1347,2020-025BH,2026-06-10T02:23:54.401280,15.68837556,.00015249,53.0383,297.4810,128.1263,231.9890,0,U,45586,999,34061,.51899069E-3,.60519E-3,0
STARLINK-1364,2020-025BL,2026-06-09T18:54:52.958016,15.69559712,.00002532,53.0438,335.7082,295.7920,64.3070,0,U,45589,999,34005,.48227548E-3,.57889E-3,0
STARLINK-1365,2020-025BM,2026-06-09T20:37:47.800992,15.59480377,.0002184,53.0476,9.6493,112.6812,247.4431,0,U,45590,999,33960,.11527E-2,.9361E-3,0
STARLINK-1443,2020-035D,2026-06-10T06:30:19.965024,15.32741750,.00024205,53.1366,355.3962,100.5435,259.5839,0,U,45660,999,33292,.13250187E-2,.42355E-3,0
STARLINK-1446,2020-035G,2026-06-10T01:09:50.637600,15.47777790,.00017187,53.0226,279.1631,201.6772,158.4162,0,U,45663,999,33395,.63117819E-3,.32976E-3,0
STARLINK-1448,2020-035J,2026-06-10T06:19:03.071136,15.68519546,.00042502,53.0439,320.7417,100.5052,259.6443,0,U,45665,999,33338,.52293257E-3,.60204E-3,0
STARLINK-1451,2020-035M,2026-06-09T20:59:36.279744,15.14338775,.00019082,53.0536,8.4353,116.7278,243.3910,0,U,45668,999,33269,.14359954E-2,.26423E-3,0
STARLINK-1452,2020-035N,2026-06-10T02:16:04.042272,15.59331084,.00042357,53.0254,296.8373,319.8667,40.2031,0,U,45669,999,33371,.1188457E-2,.96033E-3,0
STARLINK-1453,2020-035P,2026-06-10T07:03:17.228160,15.69051912,.00021124,53.0391,280.8689,307.1443,52.9379,0,U,45670,999,33384,.55617541E-3,.65518E-3,0
STARLINK-1454,2020-035Q,2026-06-09T18:14:21.752736,15.66913483,.00019022,53.0440,324.4711,43.6977,316.4188,0,U,45671,999,33328,.53051682E-3,.57152E-3,0
STARLINK-1456,2020-035S,2026-06-09T17:29:43.619712,15.65796606,.00037554,53.0431,319.2211,163.7959,196.3176,0,U,45673,999,33337,.4745455E-3,.4876E-3,0
STARLINK-1458,2020-035U,2026-06-09T18:18:30.475872,15.57445259,.0000987,53.0464,333.7751,63.6730,296.4382,0,U,45675,999,33313,.12952675E-2,.97491E-3,0
STARLINK-1460,2020-035V,2026-06-10T05:55:14.013408,15.35307939,.00024126,53.1589,353.9444,175.1852,184.9175,0,U,45676,999,33290,.12671834E-2,.43951E-3,0
STARLINK-1392,2020-035W,2026-06-10T06:13:40.498464,15.38602031,.0001963,53.1555,352.4633,191.1885,168.9076,0,U,45677,999,33296,.13155824E-2,.50842E-3,0
STARLINK-1394,2020-035Y,2026-06-10T02:46:16.723776,15.65508797,.00038976,53.0406,307.6083,184.4941,175.6040,0,U,45679,999,33356,.39399872E-3,.39879E-3,0
STARLINK-1402,2020-035AE,2026-06-09T16:25:13.117440,15.57993008,.00043456,53.0409,300.6488,202.3038,157.7785,0,U,45685,999,33363,.59335872E-3,.45032E-3,0
STARLINK-1404,2020-035AF,2026-06-10T04:17:19.649760,15.44921987,.00031136,53.1574,334.3822,199.5751,160.5137,0,U,45686,999,33321,.13349482E-2,.63884E-3,0
STARLINK-1413,2020-035AJ,2026-06-10T05:17:39.832224,15.35239416,.00015105,53.1593,338.7134,205.1215,154.9714,0,U,45689,999,33307,.12872427E-2,.44556E-3,0
